NORAD_CAT_ID,OBJECT_NAME,OBJECT_TYPE,EPOCH,MEAN_MOTION,ECCENTRICITY,INCLINATION,RA_OF_ASC_NODE,ARG_OF_PERICENTER,MEAN_ANOMALY,BSTAR,MEAN_MOTION_DOT,MEAN_MOTION_DDOT,TLE_LINE0,TLE_LINE1,TLE_LINE2,SEMIMAJOR_AXIS,PERIOD,APOGEE,PERIGEE,DECAYED
53923.0,STARLINK-5004,PAYLOAD,2024-07-21 23:14:37,15.08833303,0.000118,53.2154,108.2411,96.3855,263.7272,5.8617e-05,6.45e-06,0.0,0 STARLINK-5004,1 53923U 22119AP  24203.96849050  .00000645  00000-0  58617-4 0  9995,2 53923  53.2154 108.2411 0001180  96.3855 263.7272 15.08833303101899,6917.901,95.438,540.582,538.95,0.0
53923.0,STARLINK-5004,PAYLOAD,2024-07-22 18:19:14,15.08841704,0.00011,53.2151,104.6738,94.149,265.9627,0.00013797,1.909e-05,0.0,0 STARLINK-5004,1 53923U 22119AP  24204.76336511  .00001909  00000-0  13797-3 0  9990,2 53923  53.2151 104.6738 0001100  94.1490 265.9627 15.08841704101590,6917.875,95.437,540.501,538.979,0.0
53923.0,STARLINK-5004,PAYLOAD,2024-07-22 23:05:23,15.08844651,0.000111,53.2151,103.7818,94.4121,265.6998,0.00015871,2.239e-05,0.0,0 STARLINK-5004,1 53923U 22119AP  24204.96208296  .00002239  00000-0  15871-3 0  9992,2 53923  53.2151 103.7818 0001110  94.4121 265.6998 15.08844651102047,6917.866,95.437,540.499,538.963,0.0
53923.0,STARLINK-5004,PAYLOAD,2024-07-23 10:13:05,15.08855091,0.0001111,53.2155,101.6998,91.2167,268.8953,0.00023601,3.472e-05,0.0,0 STARLINK-5004,1 53923U 22119AP  24205.42575384  .00003472  00000-0  23601-3 0  9999,2 53923  53.2155 101.6998 0001111  91.2167 268.8953 15.08855091101699,6917.834,95.437,540.468,538.931,0.0
53923.0,STARLINK-5004,PAYLOAD,2024-07-23 22:56:12,15.0882445,0.0001186,53.2167,99.3229,103.7933,256.3191,-4.0312e-05,-9.29e-06,0.0,0 STARLINK-5004,1 53923U 22119AP  24205.95570338 -.00000929  00000-0 -40312-4 0  9996,2 53923  53.2167  99.3229 0001186 103.7933 256.3191 15.08824450102191,6917.928,95.439,540.613,538.972,0.0
53923.0,STARLINK-5004,PAYLOAD,2024-07-24 02:06:58,15.08827651,0.0001444,53.2178,98.726,104.6271,255.4881,-0.00010976,-2.034e-05,0.0,0 STARLINK-5004,1 53923U 22119AP  24206.08817425 -.00002034  00000-0 -10976-3 0  9993,2 53923  53.2178  98.7260 0001444 104.6271 255.4881 15.08827651101790,6917.918,95.438,540.782,538.784,0.0
53923.0,STARLINK-5004,PAYLOAD,2024-07-24 22:46:58,15.0884724,0.00014,53.2171,94.863,100.3691,259.7459,0.00016609,2.357e-05,0.0,0 STARLINK-5004,1 53923U 22119AP  24206.94928699  .00002357  00000-0  16609-3 0  9999,2 53923  53.2171  94.8630 0001400 100.3691 259.7459 15.08847240102348,6917.858,95.437,540.692,538.755,0.0
53923.0,STARLINK-5004,PAYLOAD,2024-07-25 00:22:21,15.08850681,0.0001283,53.2169,94.5638,96.3676,263.7463,0.00016908,2.405e-05,0.0,0 STARLINK-5004,1 53923U 22119AP  24207.01552525  .00002405  00000-0  16908-3 0  9995,2 53923  53.2169  94.5638 0001283  96.3676 263.7463 15.08850681101933,6917.848,95.437,540.6,538.825,0.0
53923.0,STARLINK-5004,PAYLOAD,2024-07-25 22:37:45,15.0884218,0.0001202,53.2171,90.4017,99.4936,260.6192,0.0002878,4.296e-05,0.0,0 STARLINK-5004,1 53923U 22119AP  24207.94288942  .00004296  00000-0  28780-3 0  9997,2 53923  53.2171  90.4017 0001202  99.4936 260.6192 15.08842180102498,6917.874,95.437,540.57,538.907,0.0
53923.0,STARLINK-5004,PAYLOAD,2024-07-26 01:48:31,15.08849552,0.0001166,53.2168,89.8081,90.1773,269.9353,7.2105e-05,8.6e-06,0.0,0 STARLINK-5004,1 53923U 22119AP  24208.07536590  .00000860  00000-0  72105-4 0  9991,2 53923  53.2168  89.8081 0001166  90.1773 269.9353 15.08849552102090,6917.851,95.437,540.523,538.91,0.0
53923.0,STARLINK-5004,PAYLOAD,2024-07-26 09:45:27,15.08846807,0.0001247,53.2161,88.318,106.553,253.5599,0.00020259,2.938e-05,0.0,0 STARLINK-5004,1 53923U 22119AP  24208.40656562  .00002938  00000-0  20259-3 0  9990,2 53923  53.2161  88.3180 0001247 106.5530 253.5599 15.08846807102563,6917.86,95.437,540.587,538.862,0.0
53923.0,STARLINK-5004,PAYLOAD,2024-07-26 22:28:32,15.08849565,0.0001276,53.218,85.9401,94.3941,265.7196,9.8931e-05,1.287e-05,0.0,0 STARLINK-5004,1 53923U 22119AP  24208.93648310  .00001287  00000-0  98931-4 0  9999,2 53923  53.2180  85.9401 0001276  94.3941 265.7196 15.08849565102646,6917.851,95.437,540.599,538.833,0.0
53923.0,STARLINK-5004,PAYLOAD,2024-07-27 22:19:19,15.08828509,0.0001279,53.2163,81.4805,91.0398,269.074,-0.00017746,-3.11e-05,0.0,0 STARLINK-5004,1 53923U 22119AP  24209.93009116 -.00003110  00000-0 -17746-3 0  9998,2 53923  53.2163  81.4805 0001279  91.0398 269.0740 15.08828509102792,6917.916,95.438,540.665,538.896,0.0
53923.0,STARLINK-5004,PAYLOAD,2024-07-28 20:34:44,15.08837285,0.0001141,53.2162,77.3154,79.7693,280.3428,9.1974e-05,1.176e-05,0.0,0 STARLINK-5004,1 53923U 22119AP  24210.85745400  .00001176  00000-0  91974-4 0  9998,2 53923  53.2162  77.3154 0001141  79.7693 280.3428 15.08837285102511,6917.889,95.438,540.543,538.964,0.0
53923.0,STARLINK-5004,PAYLOAD,2024-07-28 22:10:07,15.08838243,0.0001307,53.2154,77.0104,63.1587,296.9539,0.00015453,2.172e-05,0.0,0 STARLINK-5004,1 53923U 22119AP  24210.92369366  .00002172  00000-0  15453-3 0  9993,2 53923  53.2154  77.0104 0001307  63.1587 296.9539 15.08838243102945,6917.886,95.438,540.655,538.847,0.0
53923.0,STARLINK-5004,PAYLOAD,2024-07-29 07:42:25,15.08849871,0.0001129,53.2157,75.2335,78.3435,281.7683,0.00027876,4.153e-05,0.0,0 STARLINK-5004,1 53923U 22119AP  24211.32112739  .00004153  00000-0  27876-3 0  9991,2 53923  53.2157  75.2335 0001129  78.3435 281.7683 15.08849871102587,6917.85,95.437,540.496,538.934,0.0
53923.0,STARLINK-5004,PAYLOAD,2024-07-29 20:25:31,15.08835307,0.0001387,53.2171,72.8677,109.2384,250.8758,0.00024531,3.618e-05,0.0,0 STARLINK-5004,1 53923U 22119AP  24211.85105727  .00003618  00000-0  24531-3 0  9998,2 53923  53.2171  72.8677 0001387 109.2384 250.8758 15.08835307102666,6917.895,95.438,540.719,538.8,0.0
53923.0,STARLINK-5004,PAYLOAD,2024-07-29 22:00:54,15.08832987,0.0001527,53.2184,72.5647,103.5608,256.5554,0.0001735,2.474e-05,0.0,0 STARLINK-5004,1 53923U 22119AP  24211.91729860  .00002474  00000-0  17350-3 0  9995,2 53923  53.2184  72.5647 0001527 103.5608 256.5554 15.08832987103092,6917.902,95.438,540.823,538.71,0.0
53923.0,STARLINK-5004,PAYLOAD,2024-07-30 07:33:12,15.088492,0.0001408,53.2177,70.7776,95.2177,264.8976,0.00027178,4.041e-05,0.0,0 STARLINK-5004,1 53923U 22119AP  24212.31472743  .00004041  00000-0  27178-3 0  9996,2 53923  53.2177  70.7776 0001408  95.2177 264.8976 15.08849200102739,6917.852,95.437,540.691,538.743,0.0
53923.0,STARLINK-5004,PAYLOAD,2024-07-30 21:51:41,15.08835748,0.0001621,53.2165,68.1007,92.9211,267.1966,-1.7611e-05,-5.68e-06,0.0,0 STARLINK-5004,1 53923U 22119AP  24212.91089657 -.00000568  00000-0 -17611-4 0  9994,2 53923  53.2165  68.1007 0001621  92.9211 267.1966 15.08835748103248,6917.893,95.438,540.88,538.637,0.0
53923.0,STARLINK-5004,PAYLOAD,2024-07-31 07:23:59,15.0885649,0.0001421,53.2167,66.3133,68.1084,292.0059,0.00011755,1.584e-05,0.0,0 STARLINK-5004,1 53923U 22119AP  24213.30832423  .00001584  00000-0  11755-3 0  9994,2 53923  53.2167  66.3133 0001421  68.1084 292.0059 15.08856490103305,6917.83,95.437,540.678,538.712,0.0
53923.0,STARLINK-5004,PAYLOAD,2024-07-31 20:07:05,15.08833617,0.0001379,53.2153,63.9329,71.2159,288.8983,-0.0001428,-2.559e-05,0.0,0 STARLINK-5004,1 53923U 22119AP  24213.83825677 -.00002559  00000-0 -14280-3 0  9996,2 53923  53.2153  63.9329 0001379  71.2159 288.8983 15.08833617102966,6917.9,95.438,540.719,538.811,0.0
53923.0,STARLINK-5004,PAYLOAD,2024-07-31 21:42:28,15.08835987,0.0001394,53.2158,63.6362,71.8213,288.2931,-9.201e-05,-1.752e-05,0.0,0 STARLINK-5004,1 53923U 22119AP  24213.90449609 -.00001752  00000-0 -92010-4 0  9993,2 53923  53.2158  63.6362 0001394  71.8213 288.2931 15.08835987103396,6917.893,95.438,540.722,538.793,0.0
53923.0,STARLINK-5004,PAYLOAD,2024-08-01 13:36:19,15.08843702,0.0001216,53.2165,60.6666,80.3356,279.7773,0.00024943,3.684e-05,0.0,0 STARLINK-5004,1 53923U 22119AP  24214.56689346  .00003684  00000-0  24943-3 0  9993,2 53923  53.2165  60.6666 0001216  80.3356 279.7773 15.08843702103498,6917.869,95.437,540.575,538.893,0.0
53923.0,STARLINK-5004,PAYLOAD,2024-08-01 21:33:14,15.08857423,0.0001376,53.2159,59.1795,75.1038,285.0107,0.00020442,2.968e-05,0.0,0 STARLINK-5004,1 53923U 22119AP  24214.89808910  .00002968  00000-0  20442-3 0  9993,2 53923  53.2159  59.1795 0001376  75.1038 285.0107 15.08857423103545,6917.827,95.436,540.644,538.74,0.0
53923.0,STARLINK-5004,PAYLOAD,2024-08-02 13:27:06,15.08833081,0.0001828,53.2158,56.2058,80.3089,279.811,-0.00019283,-3.355e-05,0.0,0 STARLINK-5004,1 53923U 22119AP  24215.56049601 -.00003355  00000-0 -19283-3 0  9996,2 53923  53.2158  56.2058 0001828  80.3089 279.8110 15.08833081103224,6917.902,95.438,541.031,538.502,0.0
53923.0,STARLINK-5004,PAYLOAD,2024-08-02 19:48:39,15.0882871,0.0001585,53.2156,55.0154,85.6469,274.4704,-0.00017927,-3.139e-05,0.0,0 STARLINK-5004,1 53923U 22119AP  24215.82545665 -.00003139  00000-0 -17927-3 0  9999,2 53923  53.2156  55.0154 0001585  85.6469 274.4704 15.08828710103689,6917.915,95.438,540.876,538.683,0.0
53923.0,STARLINK-5004,PAYLOAD,2024-08-03 13:17:54,15.08841158,0.0001644,53.2161,51.7439,91.4597,268.6583,0.0010099,0.00015822,0.0,0 STARLINK-5004,1 53923U 22119AP  24216.55410239  .00015822  00000-0  10099-2 0  9990,2 53923  53.2161  51.7439 0001644  91.4597 268.6583 15.08841158103790,6917.877,95.437,540.879,538.605,0.0
53923.0,STARLINK-5004,PAYLOAD,2024-08-03 19:39:26,15.08851555,0.000164,53.2165,50.5547,87.9691,272.1489,0.0010949,0.00017186,0.0,0 STARLINK-5004,1 53923U 22119AP  24216.81906114  .00017186  00000-0  10949-2 0  9990,2 53923  53.2165  50.5547 0001640  87.9691 272.1489 15.08851555103418,6917.845,95.437,540.845,538.576,0.0
53923.0,STARLINK-5004,PAYLOAD,2024-08-04 19:30:13,15.08853377,0.0001439,53.2164,46.0882,86.1535,273.9621,0.00053521,8.243e-05,0.0,0 STARLINK-5004,1 53923U 22119AP  24217.81265656  .00008243  00000-0  53521-3 0  9998,2 53923  53.2164  46.0882 0001439  86.1535 273.9621 15.08853377103560,6917.84,95.437,540.7,538.709,0.0
